IRIDIUM 119             
1 42959U 17061E   25357.03095656  .00000274  00000+0  90945-4 0  9993
2 42959  86.3977  98.9150 0001847 100.3148 259.8256 14.34218771429561
IRIDIUM 107             
1 42960U 17061F   25357.11975366  .00000037  00000+0  61948-5 0  9998
2 42960  86.3971  98.8980 0002239 106.8228 253.3213 14.34217832429584
IRIDIUM 132             
1 42961U 17061G   25356.70748476  .00000259  00000+0  85253-4 0  9993
2 42961  86.3970  99.0509 0002118 100.4636 259.6799 14.34218925429529
IRIDIUM 136             
1 42962U 17061H   25356.80896661  .00000033  00000+0  48553-5 0  9998
2 42962  86.3969  99.0143 0001999 100.7294 259.4127 14.34217786429551
IRIDIUM 139             
1 42963U 17061J   25357.02461447  .00000152  00000+0  47136-4 0  9991
2 42963  86.3973  98.9834 0002164  99.9678 260.1762 14.34218754429596
IRIDIUM 125             
1 42964U 17061K   25356.80261772  .00000293  00000+0  97653-4 0  9991
2 42964  86.3972  99.1339 0001978 112.9082 247.2323 14.34216401429570
IRIDIUM 135             
1 43070U 17083A   25357.05582367  .00000277  00000+0  91713-4 0  9991
2 43070  86.3958  35.6306 0002178  92.7690 267.3755 14.34218518418903
IRIDIUM 138             
1 43071U 17083B   25357.15096137  .00000066  00000+0  16592-4 0  9996
2 43071  86.3970  35.2590 0001793  97.5329 262.6071 14.34218072418907
